[{"OBJECT_NAME":"SDS-4","OBJECT_ID":"2012-025C","EPOCH":"2026-03-09T22:00:42.096096","MEAN_MOTION":14.75631591,"ECCENTRICITY":0.00056029,"INCLINATION":98.1333,"RA_OF_ASC_NODE":164.2362,"ARG_OF_PERICENTER":252.4969,"MEAN_ANOMALY":107.5627,"EPHEMERIS_TYPE":0,"CLASSIFICATION_TYPE":"U","NORAD_CAT_ID":38339,"ELEMENT_SET_NO":999,"REV_AT_EPOCH":74134,"BSTAR":0.00023374761,"MEAN_MOTION_DOT":1.543e-5,"MEAN_MOTION_DDOT":0},{"OBJECT_NAME":"DELTA 1 DEB","OBJECT_ID":"1972-058W","EPOCH":"2026-03-09T19:37:21.948960","MEAN_MOTION":14.60148772,"ECCENTRICITY":0.01556935,"INCLINATION":98.2695,"RA_OF_ASC_NODE":23.7552,"ARG_OF_PERICENTER":13.7818,"MEAN_ANOMALY":346.7559,"EPHEMERIS_TYPE":0,"CLASSIFICATION_TYPE":"U","NORAD_CAT_ID":7850,"ELEMENT_SET_NO":999,"REV_AT_EPOCH":60568,"BSTAR":0.0016201298,"MEAN_MOTION_DOT":9.206e-5,"MEAN_MOTION_DDOT":0}]
